CUTE-1 (CO-55)          
1 27844U 03031E   19135.46074783  .00000072  00000-0  52041-4 0  9995
2 27844  98.6848 144.1850 0010859 126.2367 233.9816 14.22175785823426
CUBESAT XI-IV (CO-57)   
1 27848U 03031J   19134.80976769  .00000052  00000-0  43475-4 0  9990
2 27848  98.6926 144.0361 0010550 138.2685 221.9299 14.21770896823185
CUBESAT XI-V            
1 28895U 05043F   19135.39545934  .00000155  00000-0  38528-4 0  9996
2 28895  97.9540 279.3124 0018247  99.7094 260.6170 14.63659066722476
CUTE-1.7+APD II (CO-65) 
1 32785U 08021C   19135.19538838  .00000340  00000-0  42340-4 0  9994
2 32785  97.5495 136.5377 0013698  24.1677 336.0181 14.88295617598557
AAUSAT-II               
1 32788U 08021F   19135.03938878  .00000521  00000-0  52979-4 0  9998
2 32788  97.4986 152.3014 0010678 322.6956  37.3522 14.94692787599747
DELFI-C3 (DO-64)        
1 32789U 08021G   19135.08866892  .00002136  00000-0  14704-3 0  9997
2 32789  97.4672 185.7941 0010865 239.1500 120.8660 15.06875639601753
SEEDS II (CO-66)        
1 32791U 08021J   19135.47316411  .00000337  00000-0  39634-4 0  9991
2 32791  97.5286 142.7392 0013241 359.4861   0.6342 14.90798983599013
SWISSCUBE               
1 35932U 09051B   19135.03661186  .00000174  00000-0  50290-4 0  9999
2 35932  98.5846 300.0020 0006366 271.7380  88.3088 14.56274121511733
BEESAT-1                
1 35933U 09051C   19135.45395021  .00000156  00000-0  46249-4 0  9997
2 35933  98.5875 302.1732 0004603 286.9347  73.1345 14.56364867511906
ITUPSAT1                
1 35935U 09051E   19134.46074021  .00000111  00000-0  36714-4 0  9990
2 35935  98.5985 301.3912 0006929 285.9333  74.1100 14.55525794511512
TISAT 1                 
1 36799U 10035E   19135.45823384  .00000366  00000-0  43079-4 0  9991
2 36799  98.1512 286.4850 0012029 191.8630 168.2305 14.91079464479669
M-CUBED & EXP-1 PRIME   
1 37855U 11061F   19135.17070708  .00001253  00000-0  70552-4 0  9990
2 37855 101.7194  13.0460 0173759 179.0970 181.0589 15.05337587411587
STRAND-1                
1 39090U 13009E   19135.48273598  .00000042  00000-0  30091-4 0  9992
2 39090  98.4919 342.0099 0009906  36.9127 323.2739 14.35082843325481
SOMP                    
1 39134U 13015E   19135.21542579  .00002141  00000-0  10722-3 0  9997
2 39134  64.8628 132.1272 0027941 309.1877  50.6769 15.20073543335354
BEESAT-3                
1 39135U 13015F   19135.20833257  .00001581  00000-0  88378-4 0  9993
2 39135  64.8652 149.9682 0015978 324.1650  35.8403 15.17390125335013
BEESAT-2                
1 39136U 13015G   19135.23246000  .00001270  00000-0  74043-4 0  9990
2 39136  64.8679 153.6070 0016849 309.8725  50.0918 15.16831560334940
NEE-01 PEGASO           
1 39151U 13018B   19135.19934690  .00000200  00000-0  33470-4 0  9995
2 39151  97.9697 231.8763 0015971 317.0821  42.9143 14.80034137326626
ESTCUBE 1               
1 39161U 13021C   19135.19571089  .00000610  00000-0  10449-3 0  9994
2 39161  97.9873 220.6781 0010976  78.5873 281.6600 14.72193171323290
POPACS 1                
1 39268U 13055D   19135.32764255  .00004263  00000-0  11906-3 0  9990
2 39268  81.0040 357.2546 0626913 325.5419  30.6560 14.36756742292100
POPACS 2                
1 39269U 13055E   19135.43905372  .00006304  00000-0  18073-3 0  9990
2 39269  81.0179  26.1125 0685821  40.2519 324.7405 14.23749852290398
POPACS 3                
1 39270U 13055F   19135.46975372  .00002483  00000-0  75755-4 0  9997
2 39270  81.0200  42.4174 0715757  87.6034 280.6832 14.15720537289357
ZACUBE-1 (TSHEPISOSAT)  
1 39417U 13066B   19135.18261102  .00000320  00000-0  46350-4 0  9997
2 39417  97.5642 150.6214 0059898 145.8866 214.6220 14.81099121295936
WNISAT-1                
1 39423U 13066H   19135.40922589 -.00000663  00000-0 -12126-3 0  9997
2 39423  97.7730  79.7291 0176294  60.4803 301.3841 14.53033066290474
TRITON-1                
1 39427U 13066M   19135.16615487  .00000210  00000-0  41840-4 0  9992
2 39427  97.6737 114.6826 0112286 276.1715  82.6708 14.67825204293276
GOMX-1                  
1 39430U 13066Q   19135.61218870  .00000624  00000-0  12182-3 0  9996
2 39430  97.7438  94.4128 0151399   2.3632 357.8367 14.59238521291631
CUBEBUG-2 (LO-74)       
1 39440U 13066AA  19135.03778657  .00000236  00000-0  39797-4 0  9998
2 39440  97.6019 135.5226 0079809 196.4878 163.3735 14.75837973294865
NEE-02 KRYSAOR          
1 39441U 13066AB  19135.46589136  .00000182  00000-0  32944-4 0  9995
2 39441  97.6057 133.7447 0081158 201.9087 157.8646 14.74895646294754
FUNCUBE-1 (AO-73)       
1 39444U 13066AE  19135.26972284  .00000382  00000-0  53192-4 0  9996
2 39444  97.5624 152.6149 0059190 139.7096 220.8526 14.81914389294835
UWE-3                   
1 39446U 13066AG  19135.23671987  .00000288  00000-0  44740-4 0  9995
2 39446  97.5819 142.6901 0070293 171.2161 189.0299 14.78372382294176
BRITE-CA1 (TORONTO)     
1 40020U 14033L   19135.49570064  .00000080  00000-0  22225-4 0  9996
2 40020  97.7505 341.2199 0085998 265.6031  93.5345 14.66569033262284
DUCHIFAT-1              
1 40021U 14033M   19134.43626045  .00000339  00000-0  40497-4 0  9999
2 40021  97.9238  58.9147 0013223 159.8869 200.2873 14.90600046266295
NANOSATC-BR1            
1 40024U 14033Q   19135.31764172  .00000474  00000-0  55299-4 0  9990
2 40024  97.9141  57.3081 0012513 160.1262 200.0445 14.89819583266327
QB50P1                  
1 40025U 14033R   19135.02322438  .00000301  00000-0  37999-4 0  9990
2 40025  97.9067  54.7623 0012621 166.8232 193.3317 14.88922479266160
QB50P2                  
1 40032U 14033Y   19134.81234925  .00000292  00000-0  37490-4 0  9992
2 40032  97.8995  52.7707 0012117 163.5856 196.5755 14.88458688265531
PERSEUS-M2              
1 40037U 14033AD  19135.36220792  .00000116  00000-0  19377-4 0  9994
2 40037  97.8931  49.6930 0014395 175.1489 184.9868 14.86450871265877
PERSEUS-M1              
1 40039U 14033AF  19135.20252853  .00000140  00000-0  22187-4 0  9992
2 40039  97.8916  48.6660 0014329 172.9473 187.1946 14.86070754265786
POLYITAN-1              
1 40042U 14033AJ  19134.81154337  .00000369  00000-0  45551-4 0  9993
2 40042  97.9145  54.8413 0015005 158.6304 201.5542 14.88633983265533
TIGRISAT                
1 40043U 14033AK  19135.21358232  .00000169  00000-0  32389-4 0  9992
2 40043  97.7626   4.5137 0059222 206.9264 152.8869 14.74257135263525
AEROCUBE 6A             
1 40045U 14033AM  19135.18065908  .00000357  00000-0  58660-4 0  9994
2 40045  97.7843   8.1011 0057061 199.8993 159.9991 14.75366170263476
AEROCUBE 6B             
1 40046U 14033AN  19134.50717014  .00000299  00000-0  50458-4 0  9994
2 40046  97.7784   7.1086 0056375 201.3776 158.5079 14.75346102263517
UKUBE-1                 
1 40074U 14037F   19135.44608769  .00000595  00000-0  78625-4 0  9994
2 40074  98.4316 295.4663 0003375 347.7740  12.3394 14.84030367262573
BRITE-PL2 (HEWELIUSZ)   
1 40119U 14049B   19135.20730110  .00000119  00000-0  20635-4 0  9997
2 40119  97.9034 226.1518 0016791 338.1891  21.8607 14.84396494256550
FIREBIRD 4              
1 40378U 15003C   19135.47770640  .00001871  00000-0  77572-4 0  9994
2 40378  99.1106 108.7984 0127147 203.8778 155.6522 15.18656809236730
GRIFEX                  
1 40379U 15003D   19135.46018126  .00001378  00000-0  62928-4 0  9999
2 40379  99.1101 103.0552 0134753 221.9310 137.1538 15.15386780236400
EXOCUBE (CP10)          
1 40380U 15003E   19135.46493262  .00001298  00000-0  62240-4 0  9997
2 40380  99.1123  99.9287 0139477 232.4677 126.3808 15.13424789236191
TIANWANG 1C (TW-1C)     
1 40926U 15051B   19135.49174920  .00016894  00000-0  25234-3 0  9995
2 40926  97.1396 181.7193 0009804 131.5931 335.8902 15.55046598204848
TIANWANG 1A (TW-1A)     
1 40928U 15051D   19135.52761008  .00005089  00000-0  12696-3 0  9992
2 40928  97.1487 167.5864 0010533 190.1339 274.6866 15.40578504203919
EXACTVIEW 9             
1 40936U 15052G   19134.96542052  .00000819  00000-0  25567-4 0  9993
2 40936   6.0041 308.6727 0010376   7.9418 352.0874 14.76479992196085
ATHENOXAT 1             
1 41168U 15077C   19134.25258719  .00002290  00000-0  86603-4 0  9997
2 41168  14.9876 115.7768 0011562 321.2479  38.7013 15.13558945188606
GALASSIA                
1 41170U 15077E   19134.12178388  .00002062  00000-0  73399-4 0  9994
2 41170  14.9882 110.0187 0012876 342.6861  17.3021 15.13891769188640
VELOX-II                
1 41171U 15077F   19135.31004453  .00001745  00000-0  62301-4 0  9996
2 41171  14.9903 132.9301 0008863 279.0787  80.8531 15.11169560188542
HORYU-4                 
1 41340U 16012D   19134.86457683  .00000650  00000-0  42685-4 0  9997
2 41340  31.0058 355.9799 0013918 144.2714 215.8855 15.01244238177776
E-ST@R-II               
1 41459U 16025D   19135.30798510  .00003784  00000-0  19510-3 0  9990
2 41459  98.1009 220.0920 0169588 114.0035 247.9045 15.05367804167372
AAUSAT 4                
1 41460U 16025E   19135.19338814  .00004983  00000-0  25122-3 0  9994
2 41460  98.0967 221.1261 0159158 107.2146 254.6599 15.07205617167470
DIWATA-1                
1 41463U 98067HT  19135.31144542  .00029873  00000-0  15790-3 0  9995
2 41463  51.6307  65.3599 0002422  71.0180  68.3420 15.80336837174331
BEESAT-4                
1 41619U 16040W   19135.22033522  .00002432  00000-0  10613-3 0  9995
2 41619  97.3700 198.0825 0012614 138.7332 221.4860 15.23033858148614
CANX-7                  
1 41788U 16059F   19135.16420894  .00008862  00000-0  13550-2 0  9992
2 41788  98.2360 210.0062 0032850 124.2259 236.2164 14.73632708140923
RAVAN                   
1 41849U 16067B   19135.19665944  .00000608  00000-0  56380-4 0  9999
2 41849  97.9172 233.8147 0009243 133.2273 226.9722 14.98187690136834
CELTEE 1                
1 41850U 16067C   19135.18225230 -.00000215  00000-0 -13377-4 0  9995
2 41850  97.9149 232.5777 0009651 132.3505 227.8535 14.96993995136761
